[{"OBJECT_NAME":"STARLINK-4274","OBJECT_ID":"2022-062AM","EPOCH":"2026-02-13T14:38:42.000576","MEAN_MOTION":15.0883226,"ECCENTRICITY":0.00014706,"INCLINATION":53.2178,"RA_OF_ASC_NODE":132.2159,"ARG_OF_PERICENTER":102.1878,"MEAN_ANOMALY":257.9279,"EPHEMERIS_TYPE":0,"CLASSIFICATION_TYPE":"U","NORAD_CAT_ID":52865,"ELEMENT_SET_NO":999,"REV_AT_EPOCH":20229,"BSTAR":-2.4524054e-5,"MEAN_MOTION_DOT":-6.78e-6,"MEAN_MOTION_DDOT":0},{"OBJECT_NAME":"STARLINK-4272","OBJECT_ID":"2022-062AN","EPOCH":"2026-02-13T14:49:17.553792","MEAN_MOTION":15.08837701,"ECCENTRICITY":0.00013585,"INCLINATION":53.2184,"RA_OF_ASC_NODE":132.186,"ARG_OF_PERICENTER":81.148,"MEAN_ANOMALY":278.9666,"EPHEMERIS_TYPE":0,"CLASSIFICATION_TYPE":"U","NORAD_CAT_ID":52866,"ELEMENT_SET_NO":999,"REV_AT_EPOCH":20229,"BSTAR":8.655767e-6,"MEAN_MOTION_DOT":-1.5e-6,"MEAN_MOTION_DDOT":0},{"OBJECT_NAME":"STARLINK-4126","OBJECT_ID":"2022-062AP","EPOCH":"2026-02-13T16:03:29.136672","MEAN_MOTION":15.08833306,"ECCENTRICITY":0.00011018,"INCLINATION":53.2171,"RA_OF_ASC_NODE":131.9528,"ARG_OF_PERICENTER":99.8198,"MEAN_ANOMALY":260.2919,"EPHEMERIS_TYPE":0,"CLASSIFICATION_TYPE":"U","NORAD_CAT_ID":52867,"ELEMENT_SET_NO":999,"REV_AT_EPOCH":20230,"BSTAR":-5.713797e-6,"MEAN_MOTION_DOT":-3.79e-6,"MEAN_MOTION_DDOT":0},{"OBJECT_NAME":"STARLINK-4261","OBJECT_ID":"2022-062AQ","EPOCH":"2026-02-14T05:02:28.320000","MEAN_MOTION":15.08833948,"ECCENTRICITY":0.00013193,"INCLINATION":53.2176,"RA_OF_ASC_NODE":129.5545,"ARG_OF_PERICENTER":83.2312,"MEAN_ANOMALY":276.883,"EPHEMERIS_TYPE":0,"CLASSIFICATION_TYPE":"U","NORAD_CAT_ID":52868,"ELEMENT_SET_NO":999,"REV_AT_EPOCH":20238,"BSTAR":5.7125773e-5,"MEAN_MOTION_DOT":6.21e-6,"MEAN_MOTION_DDOT":0},{"OBJECT_NAME":"STARLINK-4266","OBJECT_ID":"2022-062AR","EPOCH":"2026-02-14T04:37:17.858784","MEAN_MOTION":15.08840279,"ECCENTRICITY":0.00011407,"INCLINATION":53.2162,"RA_OF_ASC_NODE":119.6039,"ARG_OF_PERICENTER":103.9303,"MEAN_ANOMALY":256.1816,"EPHEMERIS_TYPE":0,"CLASSIFICATION_TYPE":"U","NORAD_CAT_ID":52869,"ELEMENT_SET_NO":999,"REV_AT_EPOCH":20251,"BSTAR":0.00021796263,"MEAN_MOTION_DOT":3.183e-5,"MEAN_MOTION_DDOT":0},{"OBJECT_NAME":"STARLINK-4207","OBJECT_ID":"2022-062AT","EPOCH":"2026-02-13T15:38:18.677184","MEAN_MOTION":15.08836097,"ECCENTRICITY":0.0001295,"INCLINATION":53.217,"RA_OF_ASC_NODE":122.0316,"ARG_OF_PERICENTER":86.8091,"MEAN_ANOMALY":273.3049,"EPHEMERIS_TYPE":0,"CLASSIFICATION_TYPE":"U","NORAD_CAT_ID":52871,"ELEMENT_SET_NO":999,"REV_AT_EPOCH":20243,"BSTAR":2.8736151e-5,"MEAN_MOTION_DOT":1.69e-6,"MEAN_MOTION_DDOT":0},{"OBJECT_NAME":"STARLINK-4213","OBJECT_ID":"2022-062AU","EPOCH":"2026-02-14T04:28:04.044288","MEAN_MOTION":15.08842292,"ECCENTRICITY":0.00015397,"INCLINATION":53.2192,"RA_OF_ASC_NODE":119.6037,"ARG_OF_PERICENTER":80.9672,"MEAN_ANOMALY":279.1495,"EPHEMERIS_TYPE":0,"CLASSIFICATION_TYPE":"U","NORAD_CAT_ID":52872,"ELEMENT_SET_NO":999,"REV_AT_EPOCH":20251,"BSTAR":6.7466158e-5,"MEAN_MOTION_DOT":7.86e-6,"MEAN_MOTION_DDOT":0},{"OBJECT_NAME":"STARLINK-4211","OBJECT_ID":"2022-062AV","EPOCH":"2026-02-14T05:46:11.731584","MEAN_MOTION":15.08819709,"ECCENTRICITY":0.00012698,"INCLINATION":53.2169,"RA_OF_ASC_NODE":119.3885,"ARG_OF_PERICENTER":103.4011,"MEAN_ANOMALY":256.7123,"EPHEMERIS_TYPE":0,"CLASSIFICATION_TYPE":"U","NORAD_CAT_ID":52873,"ELEMENT_SET_NO":999,"REV_AT_EPOCH":20252,"BSTAR":0.00024380698,"MEAN_MOTION_DOT":3.592e-5,"MEAN_MOTION_DDOT":0},{"OBJECT_NAME":"STARLINK-4193","OBJECT_ID":"2022-062AX","EPOCH":"2026-02-13T16:57:48.765024","MEAN_MOTION":15.08838544,"ECCENTRICITY":0.00015394,"INCLINATION":53.2168,"RA_OF_ASC_NODE":121.7814,"ARG_OF_PERICENTER":106.9704,"MEAN_ANOMALY":253.1457,"EPHEMERIS_TYPE":0,"CLASSIFICATION_TYPE":"U","NORAD_CAT_ID":52875,"ELEMENT_SET_NO":999,"REV_AT_EPOCH":20244,"BSTAR":6.1357318e-5,"MEAN_MOTION_DOT":6.89e-6,"MEAN_MOTION_DDOT":0},{"OBJECT_NAME":"STARLINK-4200","OBJECT_ID":"2022-062AY","EPOCH":"2026-02-13T15:33:00.500544","MEAN_MOTION":15.08840113,"ECCENTRICITY":0.00012845,"INCLINATION":53.2174,"RA_OF_ASC_NODE":122.0477,"ARG_OF_PERICENTER":93.6734,"MEAN_ANOMALY":266.4405,"EPHEMERIS_TYPE":0,"CLASSIFICATION_TYPE":"U","NORAD_CAT_ID":52876,"ELEMENT_SET_NO":999,"REV_AT_EPOCH":20243,"BSTAR":2.9518555e-5,"MEAN_MOTION_DOT":1.82e-6,"MEAN_MOTION_DDOT":0},{"OBJECT_NAME":"STARLINK-4214","OBJECT_ID":"2022-062AZ","EPOCH":"2026-02-14T05:03:46.958688","MEAN_MOTION":15.08844694,"ECCENTRICITY":0.00013773,"INCLINATION":53.2199,"RA_OF_ASC_NODE":119.5353,"ARG_OF_PERICENTER":113.6545,"MEAN_ANOMALY":246.4592,"EPHEMERIS_TYPE":0,"CLASSIFICATION_TYPE":"U","NORAD_CAT_ID":52877,"ELEMENT_SET_NO":999,"REV_AT_EPOCH":20252,"BSTAR":4.3915743e-5,"MEAN_MOTION_DOT":4.11e-6,"MEAN_MOTION_DDOT":0},{"OBJECT_NAME":"STARLINK-4171","OBJECT_ID":"2022-062BA","EPOCH":"2026-02-13T16:52:30.125280","MEAN_MOTION":15.08833862,"ECCENTRICITY":0.00012609,"INCLINATION":53.2168,"RA_OF_ASC_NODE":121.7999,"ARG_OF_PERICENTER":103.2327,"MEAN_ANOMALY":256.8806,"EPHEMERIS_TYPE":0,"CLASSIFICATION_TYPE":"U","NORAD_CAT_ID":52878,"ELEMENT_SET_NO":999,"REV_AT_EPOCH":20244,"BSTAR":-2.3979954e-5,"MEAN_MOTION_DOT":-6.69e-6,"MEAN_MOTION_DDOT":0},{"OBJECT_NAME":"STARLINK-4139","OBJECT_ID":"2022-062BB","EPOCH":"2026-02-14T04:47:54.981888","MEAN_MOTION":15.08825012,"ECCENTRICITY":0.00012701,"INCLINATION":53.2156,"RA_OF_ASC_NODE":119.57,"ARG_OF_PERICENTER":107.592,"MEAN_ANOMALY":252.5211,"EPHEMERIS_TYPE":0,"CLASSIFICATION_TYPE":"U","NORAD_CAT_ID":52879,"ELEMENT_SET_NO":999,"REV_AT_EPOCH":20252,"BSTAR":-0.00014234979,"MEAN_MOTION_DOT":-2.552e-5,"MEAN_MOTION_DDOT":0},{"OBJECT_NAME":"STARLINK-4186","OBJECT_ID":"2022-062BC","EPOCH":"2026-02-13T11:23:57.150528","MEAN_MOTION":15.0885058,"ECCENTRICITY":0.0001469,"INCLINATION":53.2176,"RA_OF_ASC_NODE":122.8268,"ARG_OF_PERICENTER":107.6839,"MEAN_ANOMALY":252.4314,"EPHEMERIS_TYPE":0,"CLASSIFICATION_TYPE":"U","NORAD_CAT_ID":52880,"ELEMENT_SET_NO":999,"REV_AT_EPOCH":20241,"BSTAR":9.4848924e-5,"MEAN_MOTION_DOT":1.222e-5,"MEAN_MOTION_DDOT":0},{"OBJECT_NAME":"STARLINK-4181","OBJECT_ID":"2022-062BE","EPOCH":"2026-02-14T05:19:36.455808","MEAN_MOTION":15.08839478,"ECCENTRICITY":0.00012465,"INCLINATION":53.2163,"RA_OF_ASC_NODE":119.0474,"ARG_OF_PERICENTER":92.4485,"MEAN_ANOMALY":267.6649,"EPHEMERIS_TYPE":0,"CLASSIFICATION_TYPE":"U","NORAD_CAT_ID":52882,"ELEMENT_SET_NO":999,"REV_AT_EPOCH":20253,"BSTAR":4.3312482e-5,"MEAN_MOTION_DOT":4.02e-6,"MEAN_MOTION_DDOT":0},{"OBJECT_NAME":"STARLINK-4260","OBJECT_ID":"2022-076A","EPOCH":"2026-02-13T20:45:39.803328","MEAN_MOTION":15.08834335,"ECCENTRICITY":0.00012511,"INCLINATION":53.2166,"RA_OF_ASC_NODE":201.0727,"ARG_OF_PERICENTER":88.7449,"MEAN_ANOMALY":271.3686,"EPHEMERIS_TYPE":0,"CLASSIFICATION_TYPE":"U","NORAD_CAT_ID":52986,"ELEMENT_SET_NO":999,"REV_AT_EPOCH":19924,"BSTAR":2.39449e-7,"MEAN_MOTION_DOT":-2.84e-6,"MEAN_MOTION_DDOT":0}]
