STARLINK-4274           
1 52865U 22062AM  26044.61020834 -.00000678  00000+0 -24524-4 0  9991
2 52865  53.2178 132.2159 0001470 102.1878 257.9279 15.08832260202297
STARLINK-4272           
1 52866U 22062AN  26044.61756428 -.00000150  00000+0  86558-5 0  9997
2 52866  53.2184 132.1860 0001358  81.1480 278.9666 15.08837701202291
STARLINK-4126           
1 52867U 22062AP  26044.66908723 -.00000379  00000+0 -57138-5 0  9996
2 52867  53.2171 131.9528 0001101  99.8198 260.2919 15.08833306202308
STARLINK-4261           
1 52868U 22062AQ  26045.21005000  .00000621  00000+0  57126-4 0  9999
2 52868  53.2176 129.5545 0001319  83.2312 276.8830 15.08833948202387
STARLINK-4266           
1 52869U 22062AR  26045.19256781  .00003183  00000+0  21796-3 0  9990
2 52869  53.2162 119.6039 0001140 103.9303 256.1816 15.08840279202518
STARLINK-4207           
1 52871U 22062AT  26044.65160506  .00000169  00000+0  28736-4 0  9995
2 52871  53.2170 122.0316 0001295  86.8091 273.3049 15.08836097202433
STARLINK-4213           
1 52872U 22062AU  26045.18615792  .00000786  00000+0  67466-4 0  9995
2 52872  53.2192 119.6037 0001539  80.9672 279.1495 15.08842292202513
STARLINK-4211           
1 52873U 22062AV  26045.24041356  .00003592  00000+0  24381-3 0  9998
2 52873  53.2169 119.3885 0001269 103.4011 256.7123 15.08819709202521
STARLINK-4193           
1 52875U 22062AX  26044.70681441  .00000689  00000+0  61357-4 0  9994
2 52875  53.2168 121.7814 0001539 106.9704 253.1457 15.08838544202448
STARLINK-4200           
1 52876U 22062AY  26044.64792246  .00000182  00000+0  29519-4 0  9996
2 52876  53.2174 122.0477 0001284  93.6734 266.4405 15.08840113202431
STARLINK-4214           
1 52877U 22062AZ  26045.21096017  .00000411  00000+0  43916-4 0  9996
2 52877  53.2199 119.5353 0001377 113.6545 246.4592 15.08844694202522
STARLINK-4171           
1 52878U 22062BA  26044.70312645 -.00000669  00000+0 -23980-4 0  9994
2 52878  53.2168 121.7999 0001260 103.2327 256.8806 15.08833862202443
STARLINK-4139           
1 52879U 22062BB  26045.19994192 -.00002552  00000+0 -14235-3 0  9997
2 52879  53.2156 119.5700 0001270 107.5920 252.5211 15.08825012202523
STARLINK-4186           
1 52880U 22062BC  26044.47496702  .00001222  00000+0  94849-4 0  9994
2 52880  53.2176 122.8268 0001469 107.6839 252.4314 15.08850580202412
STARLINK-4181           
1 52882U 22062BE  26045.22194972  .00000402  00000+0  43312-4 0  9992
2 52882  53.2163 119.0474 0001246  92.4485 267.6649 15.08839478202533
STARLINK-4260           
1 52986U 22076A   26044.86504402 -.00000284  00000+0  23945-6 0  9995
2 52986  53.2166 201.0727 0001251  88.7449 271.3686 15.08834335199241
